ALOS-2                  
1 39766U 14029A   26093.13423900  .00000218  00000+0  36025-4 0  9999
2 39766  97.9197 191.3762 0001873 101.9153 258.2269 14.79449708640482
YAOGAN-29               
1 41038U 15069A   26093.62400235  .00000787  00000+0  10349-3 0  9990
2 41038  98.0102 122.1165 0000059 219.0123 141.1086 14.83023356559575
ASTRO-H (HITOMI)        
1 41337U 16012A   26093.61956448  .00004921  00000+0  28817-3 0  9995
2 41337  30.9990 195.6484 0009679 222.5414 137.4474 15.10171847556009
HXMT (HUIYAN)           
1 42758U 17034A   26093.52447619  .00010928  00000+0  53519-3 0  9994
2 42758  43.0137 238.5666 0031073  29.7119 330.5486 15.17795467486318
SAOCOM 1A               
1 43641U 18076A   26093.60438902 -.00000332  00000+0 -35180-4 0  9992
2 43641  97.8895 281.4256 0001372  88.7088 271.4282 14.82146898405057
H-2A R/B                
1 43682U 18084L   26093.58816954  .00032248  00000+0  73796-3 0  9993
2 43682  98.8684 316.3160 0023329 297.6019  62.2855 15.42467000409618
SAOCOM 1B               
1 46265U 20059A   26093.56812706  .00000833  00000+0  11124-3 0  9999
2 46265  97.8883 280.4866 0001459  84.7321 275.4058 14.82150109302430
CSS (TIANHE)            
1 48274U 21035A   26093.66213341  .00030768  00000+0  34553-3 0  9998
2 48274  41.4676  56.0662 0003775 116.3854 243.7373 15.61949710281519
COSMOS 2550             
1 48865U 21056A   26091.47039022  .00005639  00000+0  17705-3 0  9995
2 48865  67.1445 331.9738 0008328 269.3207  90.6993 15.33839536266954
CZ-2C R/B               
1 52794U 22058K   26093.63569740  .00054065  00000+0  72855-3 0  9993
2 52794  50.1875 189.7869 0041161 307.8980  51.8272 15.56231657214015
CZ-2C R/B               
1 54039U 22132E   26093.59629549  .00065029  00000+0  67454-3 0  9990
2 54039  97.2950  97.7134 0016131   7.8841 352.2668 15.64298198194263
GSLV R/B                
1 54149U 22138AN  26093.58973225  .00005444  00000+0  46897-3 0  9993
2 54149  87.3851 158.0252 0023764  64.7580 295.6111 14.96940187187653
